{
  "type": "FeatureCollection",
  "features": [
    {
      "type": "Feature",
      "properties": {
        "norad_id": 42917,
        "name": "QZS-3 (QZSS/PRN 199)",
        "group": "gnss",
        "lat": 0.005184221572238744,
        "lon": 16.598766410787814,
        "alt_km": 35788.82596362316,
        "timestamp": "2025-12-17T10:52:54.596092+00:00",
        "meta_object_name": "QZS-3 (QZSS/PRN 199)",
        "meta_object_id": "2017-048A",
        "meta_epoch": "2025-12-16T19:05:50.585568",
        "meta_mean_motion": 1.00267855,
        "meta_eccentricity": 0.00017897,
        "meta_inclination": 0.0272,
        "meta_ra_of_asc_node": 203.1896,
        "meta_arg_of_pericenter": 71.7643,
        "meta_mean_anomaly": 224.2314,
        "meta_ephemeris_type": 0,
        "meta_classification_type": "U",
        "meta_norad_cat_id": 42917,
        "meta_element_set_no": 999,
        "meta_rev_at_epoch": 3043,
        "meta_bstar": 0,
        "meta_mean_motion_dot": 0,
        "meta_mean_motion_ddot": 0,
        "tle_line1": "1 42917U 17048A   25350.79572437  .00000000  00000+0  00000+0 0  9990",
        "tle_line2": "2 42917   0.0272 203.1896 0001789  71.7643 224.2314  1.00267855 30430"
      },
      "geometry": {
        "type": "Point",
        "coordinates": [
          16.598766410787814,
          0.005184221572238744
        ]
      }
    },
    {
      "type": "Feature",
      "properties": {
        "norad_id": 42939,
        "name": "COSMOS 2522 (752)",
        "group": "gnss",
        "lat": -44.24089009604226,
        "lon": 169.79184731828664,
        "alt_km": 19133.79423549966,
        "timestamp": "2025-12-17T10:52:54.596104+00:00",
        "meta_object_name": "COSMOS 2522 (752)",
        "meta_object_id": "2017-055A",
        "meta_epoch": "2025-12-16T02:41:16.915776",
        "meta_mean_motion": 2.13102063,
        "meta_eccentricity": 0.00063883,
        "meta_inclination": 64.0761,
        "meta_ra_of_asc_node": 198.1142,
        "meta_arg_of_pericenter": 224.0896,
        "meta_mean_anomaly": 135.9399,
        "meta_ephemeris_type": 0,
        "meta_classification_type": "U",
        "meta_norad_cat_id": 42939,
        "meta_element_set_no": 999,
        "meta_rev_at_epoch": 6407,
        "meta_bstar": 0,
        "meta_mean_motion_dot": 1.09e-06,
        "meta_mean_motion_ddot": 0,
        "tle_line1": "1 42939U 17055A   25350.11200134  .00000109  00000+0  00000+0 0  9990",
        "tle_line2": "2 42939  64.0761 198.1142 0006388 224.0896 135.9399  2.13102063 64079"
      },
      "geometry": {
        "type": "Point",
        "coordinates": [
          169.79184731828664,
          -44.24089009604226
        ]
      }
    },
    {
      "type": "Feature",
      "properties": {
        "norad_id": 42965,
        "name": "QZS-4 (QZSS/PRN 195)",
        "group": "gnss",
        "lat": 27.764540616731775,
        "lon": 24.32336584619185,
        "alt_km": 37894.072993191105,
        "timestamp": "2025-12-17T10:52:54.596116+00:00",
        "meta_object_name": "QZS-4 (QZSS/PRN 195)",
        "meta_object_id": "2017-062A",
        "meta_epoch": "2025-12-16T07:56:51.622656",
        "meta_mean_motion": 1.0025219,
        "meta_eccentricity": 0.07516217,
        "meta_inclination": 40.224,
        "meta_ra_of_asc_node": 345.8248,
        "meta_arg_of_pericenter": 271.6301,
        "meta_mean_anomaly": 83.0932,
        "meta_ephemeris_type": 0,
        "meta_classification_type": "U",
        "meta_norad_cat_id": 42965,
        "meta_element_set_no": 999,
        "meta_rev_at_epoch": 2997,
        "meta_bstar": 0,
        "meta_mean_motion_dot": -3.49e-06,
        "meta_mean_motion_ddot": 0,
        "tle_line1": "1 42965U 17062A   25350.33115304 -.00000349  00000+0  00000+0 0  9992",
        "tle_line2": "2 42965  40.2240 345.8248 0751621 271.6301  83.0932  1.00252190 29978"
      },
      "geometry": {
        "type": "Point",
        "coordinates": [
          24.32336584619185,
          27.764540616731775
        ]
      }
    },
    {
      "type": "Feature",
      "properties": {
        "norad_id": 43001,
        "name": "BEIDOU-3 M1 (C19)",
        "group": "gnss",
        "lat": -41.98377530005087,
        "lon": -74.44210877439892,
        "alt_km": 21523.737788323175,
        "timestamp": "2025-12-17T10:52:54.596130+00:00",
        "meta_object_name": "BEIDOU-3 M1 (C19)",
        "meta_object_id": "2017-069A",
        "meta_epoch": "2025-12-15T11:51:52.212384",
        "meta_mean_motion": 1.86231324,
        "meta_eccentricity": 0.00094078,
        "meta_inclination": 56.5296,
        "meta_ra_of_asc_node": 69.1425,
        "meta_arg_of_pericenter": 302.6057,
        "meta_mean_anomaly": 57.3228,
        "meta_ephemeris_type": 0,
        "meta_classification_type": "U",
        "meta_norad_cat_id": 43001,
        "meta_element_set_no": 999,
        "meta_rev_at_epoch": 5518,
        "meta_bstar": 0,
        "meta_mean_motion_dot": -8.2e-07,
        "meta_mean_motion_ddot": 0,
        "tle_line1": "1 43001U 17069A   25349.49435431 -.00000082  00000+0  00000+0 0  9996",
        "tle_line2": "2 43001  56.5296  69.1425 0009407 302.6057  57.3228  1.86231324 55189"
      },
      "geometry": {
        "type": "Point",
        "coordinates": [
          -74.44210877439892,
          -41.98377530005087
        ]
      }
    },
    {
      "type": "Feature",
      "properties": {
        "norad_id": 43002,
        "name": "BEIDOU-3 M2 (C20)",
        "group": "gnss",
        "lat": -56.26640881049156,
        "lon": -12.422823813884857,
        "alt_km": 21524.15693323759,
        "timestamp": "2025-12-17T10:52:54.596153+00:00",
        "meta_object_name": "BEIDOU-3 M2 (C20)",
        "meta_object_id": "2017-069B",
        "meta_epoch": "2025-12-15T23:16:20.544672",
        "meta_mean_motion": 1.86230882,
        "meta_eccentricity": 0.00064213,
        "meta_inclination": 56.5297,
        "meta_ra_of_asc_node": 69.1629,
        "meta_arg_of_pericenter": 331.0436,
        "meta_mean_anomaly": 28.9409,
        "meta_ephemeris_type": 0,
        "meta_classification_type": "U",
        "meta_norad_cat_id": 43002,
        "meta_element_set_no": 999,
        "meta_rev_at_epoch": 5518,
        "meta_bstar": 0,
        "meta_mean_motion_dot": -8.1e-07,
        "meta_mean_motion_ddot": 0,
        "tle_line1": "1 43002U 17069B   25349.96968223 -.00000081  00000+0  00000+0 0  9998",
        "tle_line2": "2 43002  56.5297  69.1629 0006421 331.0436  28.9409  1.86230882 55180"
      },
      "geometry": {
        "type": "Point",
        "coordinates": [
          -12.422823813884857,
          -56.26640881049156
        ]
      }
    },
    {
      "type": "Feature",
      "properties": {
        "norad_id": 43055,
        "name": "GSAT0215 (GALILEO 19)",
        "group": "gnss",
        "lat": 7.648158336519003,
        "lon": 41.15008458777285,
        "alt_km": 23225.19966350335,
        "timestamp": "2025-12-17T10:52:54.596170+00:00",
        "meta_object_name": "GSAT0215 (GALILEO 19)",
        "meta_object_id": "2017-079A",
        "meta_epoch": "2025-12-11T21:30:24.060384",
        "meta_mean_motion": 1.704739,
        "meta_eccentricity": 0.00012658,
        "meta_inclination": 55.1303,
        "meta_ra_of_asc_node": 226.661,
        "meta_arg_of_pericenter": 350.6161,
        "meta_mean_anomaly": 9.46,
        "meta_ephemeris_type": 0,
        "meta_classification_type": "U",
        "meta_norad_cat_id": 43055,
        "meta_element_set_no": 999,
        "meta_rev_at_epoch": 4979,
        "meta_bstar": 0,
        "meta_mean_motion_dot": 1.3e-07,
        "meta_mean_motion_ddot": 0,
        "tle_line1": "1 43055U 17079A   25345.89611181  .00000013  00000+0  00000+0 0  9997",
        "tle_line2": "2 43055  55.1303 226.6610 0001265 350.6161   9.4600  1.70473900 49794"
      },
      "geometry": {
        "type": "Point",
        "coordinates": [
          41.15008458777285,
          7.648158336519003
        ]
      }
    },
    {
      "type": "Feature",
      "properties": {
        "norad_id": 43056,
        "name": "GSAT0216 (GALILEO 20)",
        "group": "gnss",
        "lat": -6.674055193419446,
        "lon": -138.15784939843545,
        "alt_km": 23217.034861239023,
        "timestamp": "2025-12-17T10:52:54.596181+00:00",
        "meta_object_name": "GSAT0216 (GALILEO 20)",
        "meta_object_id": "2017-079B",
        "meta_epoch": "2025-12-15T02:53:15.721440",
        "meta_mean_motion": 1.70474161,
        "meta_eccentricity": 0.00024377,
        "meta_inclination": 55.1296,
        "meta_ra_of_asc_node": 226.5721,
        "meta_arg_of_pericenter": 321.9365,
        "meta_mean_anomaly": 38.1347,
        "meta_ephemeris_type": 0,
        "meta_classification_type": "U",
        "meta_norad_cat_id": 43056,
        "meta_element_set_no": 999,
        "meta_rev_at_epoch": 4986,
        "meta_bstar": 0,
        "meta_mean_motion_dot": 3.8e-07,
        "meta_mean_motion_ddot": 0,
        "tle_line1": "1 43056U 17079B   25349.12032085  .00000038  00000+0  00000+0 0  9995",
        "tle_line2": "2 43056  55.1296 226.5721 0002437 321.9365  38.1347  1.70474161 49862"
      },
      "geometry": {
        "type": "Point",
        "coordinates": [
          -138.15784939843545,
          -6.674055193419446
        ]
      }
    }
  ]
}